MOLNIYA 1-80            
1 21118U 91012A   13022.60454422 -.00001224  00000-0  69927-3 0  2338
2 21118  61.5487  73.4405 7455972 273.1765  18.5741  2.00292866160737
MOLNIYA 3-40            
1 21196U 91022A   13022.00584237  .00002514  00000-0  84145-3 0  7412
2 21196  61.8104  52.6901 7483046 276.8614 191.5497  2.00827212160018
MOLNIYA 1-81            
1 21426U 91043A   13021.53509615 -.00000224  00000-0 -23672-2 0  8231
2 21426  62.3236  54.7889 7348585 278.1726 305.3443  2.00631334158269
MOLNIYA 3-41            
1 21706U 91065A   13021.06432846  .00000504  00000-0 -12102-1 0  1075
2 21706  63.4401 211.3429 7087604 285.0353 303.9922  2.04355801156756
MOLNIYA 3-42            
1 22178U 92067A   13022.49328529  .00015428  13982-5  93996-3 0  4648
2 22178  62.5086 339.9040 7378317 282.0408 220.7724  2.19202890148850
MOLNIYA 1-86            
1 22671U 93035A   13023.12241601  .00030357  00000-0  82053-3 0  4066
2 22671  62.6826  95.8156 5209424 297.4922  19.4385  5.38329638159838
MOLNIYA 3-45            
1 22729U 93049A   13022.81397942  .00002699  00000-0  10905-2 0  4907
2 22729  61.9602  86.5106 7477206 269.7235  13.2397  2.00993951142630
MOLNIYA 1-87            
1 22949U 93079A   13021.49208720 -.00001060  00000-0  47532-2 0   153
2 22949  61.6631 218.6106 7300831 260.5607  17.9791  2.00261343139898
MOLNIYA 1-88            
1 23420U 94081A   13022.37942373  .00605094  28756-4  74853-3 0  6464
2 23420  62.4211  21.6546 7250344 280.9847  11.7457  2.39083313133134
MOLNIYA 3-47            
1 23642U 95042A   13018.51809471 -.00000010  00000-0 -60167-2 0   182
2 23642  61.8930 195.7818 7271987 264.1159  16.8260  2.00589304127851
MOLNIYA 1-90            
1 24960U 97054A   13022.54435683  .00001063  00000-0  12488-4 0  4938
2 24960  62.0058 231.9880 7378239 262.7446 137.0388  2.04606094112561
MOLNIYA 1-91            
1 25485U 98054A   13023.05274721 -.00000154  00000-0  10000-3 0  8452
2 25485  63.2438  13.0891 7417575 254.2775  57.1919  2.00628270104916
MOLNIYA 3-50            
1 25847U 99036A   13022.36969461  .00000067  00000-0  00000+0 0  4127
2 25847  63.3841 124.1271 7014870 257.8948  57.9558  2.00573551 99231
MOLNIYA 3-51            
1 26867U 01030A   13023.19677998 -.00000641  00000-0  00000+0 0  2600
2 26867  63.6614  33.3304 7475692 254.5205 134.6508  2.00600385 84357
MOLNIYA 1-92            
1 27707U 03011A   13022.39465565  .00005346  19684-5  67715-3 0  4006
2 27707  64.1466  39.7562 7517815 243.8339  22.0438  2.01594443 71885
MOLNIYA 3-53            
1 27834U 03029A   13023.43514273 -.00001987  00000-0  00000+0 0  6246
2 27834  64.1762  40.3644 7512978 243.9754 350.0531  2.01256302 70326
MOLNIYA 1-93            
1 28163U 04005A   13022.65026524  .00000237  00000-0  10000-3 0   455
2 28163  64.7355 141.0814 7029144 253.3318 222.5865  2.00631071 65420
